#aV2006 12 21  0  0   .00000000      96 DD+AD WGS84 FIT  NGA
## 1406 345600.00000000   900.00000000 54090  .0000000000000
+   30     1  2  3  4  5  6  7  8  9 10 11 12 13 14 16 17 18
+         19 20 21 22 23 24 25 26 27 28 29 30 31  0  0  0  0
+          0  0  0  0  0  0  0  0  0  0  0  0  0  0  0  0  0
+          0  0  0  0  0  0  0  0  0  0  0  0  0  0  0  0  0
+          0  0  0  0  0  0  0  0  0  0  0  0  0  0  0  0  0
++         0  0  0  0  0  0  0  0  0  0  0  0  0  0  0  0  0
++         0  0  0  0  0  0  0  0  0  0  0  0  0  0  0  0  0
++         0  0  0  0  0  0  0  0  0  0  0  0  0  0  0  0  0
++         0  0  0  0  0  0  0  0  0  0  0  0  0  0  0  0  0
++         0  0  0  0  0  0  0  0  0  0  0  0  0  0  0  0  0
%c cc cc ccc ccc cccc cccc cccc cccc ccccc ccccc ccccc ccccc
%c cc cc ccc ccc cccc cccc cccc cccc ccccc ccccc ccccc ccccc
%f  0.0000000  0.000000000  0.00000000000  0.000000000000000
%f  0.0000000  0.000000000  0.00000000000  0.000000000000000
%i    0    0    0    0      0      0      0      0         0
%i    0    0    0    0      0      0      0      0         0
/*      NGA, ST. LOUIS,MO.                                  
/*   EPHEMERIS COMPUTED FROM  3 DAYS OF DATA                
/* CCCCCCCCCCCCCCCCCCCCCCCCCCCCCCCCCCCCCCCCCCCCCCCCCCCCCCCCC
/* CCCCCCCCCCCCCCCCCCCCCCCCCCCCCCCCCCCCCCCCCCCCCCCCCCCCCCCCC
*  2006 12 21  6 15   .00000000                                                 
P  1 -16824.810082 -14307.467725  15010.345320     96.555835                    
V  1  18384.956635   3177.785026  23906.588967       .022946                    
P  2  13620.200834  21520.507831  -8205.398691     65.904678                    
V  2    680.282503  10392.516692  28987.274017       .035024                    
P  3 -20667.035803 -11581.042974 -12528.005902    473.396340                    
V  3  15772.382412  -1301.580320 -24889.880024       .188859                    
P  4   4683.445871  25510.397781   4676.557675    348.068934                    
V  4  -5170.702096  -4722.661770  30941.350187       .032166                    
P  5  19908.819910  -8254.475580  15198.325571    437.687513                    
V  5  -9654.612772  17513.243709  21979.198752       .192226                    
P  6  19683.071457  -8464.458731 -15543.935750    499.546654                    
V  6  19462.088915   5746.215069  21208.068119      -.190373                    
P  7  12258.961365 -12807.083131 -19422.268215    468.310754                    
V  7  25102.011100   4929.655817  12299.584775      -.096687                    
P  8  -3289.982156  22270.049479 -13864.311664    -90.359808                    
V  8  -6877.401589 -16264.122706 -25138.082026      -.014702                    
P  9  16613.380733   5714.944425  19418.289768     49.728165                    
V  9   8121.111053  24554.183703 -13538.780505       .015663                    
P 10  11460.643973   9741.268523 -21994.865500     94.695110                    
V 10 -18779.392185  20293.404911   -487.949439       .005554                    
P 11 -18191.592034  -1359.284830  19288.235180       .507975                    
V 11 -10184.671285 -22781.275029 -10869.983781       .014129                    
P 12  20456.751678  -6971.625871  15520.412883    -80.919986                    
V 12 -11341.597554  16027.101195  22332.096651       .093728                    
P 13 -17689.971063   8052.298305 -18170.467946    124.514444                    
V 13 -22012.165534  -6159.717540  18831.842717       .037874                    
P 14   -375.881000 -14962.146878  22031.412793      2.264712                    
V 14  27107.923876   5648.931795   4246.504372       .010881                    
P 16  -7139.060570 -14145.792381 -21217.222422    104.011105                    
V 16  18636.658268 -19744.540772   6988.472959       .039807                    
P 17    410.676566  15508.497847  21562.288088     85.510601                    
V 17 -26902.788309  -5140.172707   4095.874068      -.013553                    
P 18  17289.717532 -19868.485602   1710.200496   -253.614456                    
V 18   3760.491882    773.890518 -31745.152632      -.002258                    
P 19 -25234.139985  -8174.314006  -2028.656943     47.221961                    
V 19   3325.767343  -2064.572484 -31479.975197       .042895                    
P 20 -20762.230834   9945.365013  13121.481599    -21.837051                    
V 20   9104.838521 -14372.635230  25166.095894      -.000736                    
P 21   7912.459453 -17979.806528 -17523.248826     65.779561                    
V 21   8760.633756  21076.758441 -18125.930303       .012867                    
P 22   8282.973383 -21755.086992  12933.854615    157.143412                    
V 22  13013.384116  -9931.889788 -25373.929065       .023849                    
P 23 -25044.095027   1386.571484  -9107.383563    143.381639                    
V 23 -10745.402681  -4324.250115  28955.863223       .010639                    
P 24  14636.201607  17413.208401 -13293.529727     61.820173                    
V 24   2256.648810  17349.310226  25136.454305       .031475                    
P 25 -10715.492246 -24204.493001    151.534938    400.599532                    
V 25   2687.512806  -1518.228062  31785.265914      -.059829                    
P 26  25199.441377   8584.601848  -4074.206281    -57.046412                    
V 26  -4734.064766    230.171469 -31501.706292      -.171363                    
P 27  -8325.850283  15283.939232 -19349.073715     84.276714                    
V 27 -11217.609281 -23540.611234 -13620.395057       .020063                    
P 28 -10987.726704  22062.349949   9720.204903     11.533202                    
V 28 -10129.451832   7025.035902 -28634.235396      -.009255                    
P 29  23628.685919   9728.105671  -7616.037340    273.227637                    
V 29  -9998.499240   -301.419218 -30172.609224       .213996                    
P 30  19101.754494 -17530.857732   5182.744553     20.087159                    
V 30  -1820.951885   7541.490851  30550.246331       .012188                    
P 31  -7360.958129 -25439.490165   1866.798415    -17.653145                    
V 31   3388.020135   1096.705500  31663.171188       .071101                    
EOF
